format  = 'OEF1.1'       ! file format
rectype = 'ML'           ! record type (1L/ML)
refsys  = ECLM J2000     ! default reference system
END_OF_HEADER
1862
! Equinoctial elements: a, e*sin(LP), e*cos(LP), tan(i/2)*sin(LN), tan(i/2)*cos(LN), mean long.
 EQU   1.47013272777156E+00  -0.347997490780671   0.438628757191011    0.032422538719424    0.045038625205886 174.9957186179138
 MJD     54668.051354402 TDT
 MAG  16.060  0.090
! RMS    1.00935E-09   3.46111E-08   1.45829E-08   2.94663E-08   2.43439E-08   2.49086E-06
! EIG   3.98484E-11   4.17292E-09   1.63853E-08   2.87802E-08   3.42864E-08   4.97264E-08
! WEA   0.00852   0.49967   0.26526   0.03201   0.10408   0.81734
 COV   1.018785024566634E-18 -7.277894438443015E-19  1.690131535224172E-18
 COV  -1.131017752204196E-17  1.077145321856477E-17  1.416774218720645E-15
 COV   1.197925383983283E-15  3.997895820334287E-16  1.131694751611634E-17
 COV   1.360379505122941E-17  3.709411255555473E-14  2.126605992635989E-16
 COV   1.584819523649269E-17 -1.229906065233385E-17  2.807461773613424E-14
 COV   8.682656984387631E-16  4.247018529033901E-16 -1.827316160122736E-16
 COV   5.926266828376337E-16  1.250994950427313E-14  6.204388744333892E-12
 NOR   6.282901757750464E+20  3.162996109730879E+18  4.837139681908525E+18
 NOR   1.871640800163266E+19 -2.185701546056427E+19 -1.396470306139264E+17
 NOR   1.953425287470659E+16  1.294391600319839E+16  9.525833061140898E+16
 NOR  -1.118055358668045E+17 -6.693913720205773E+14  8.782162707046678E+16
 NOR   1.390212541717332E+17 -1.595609608629380E+17 -1.253521282849764E+15
 NOR   5.598906857941909E+17 -6.533654199155404E+17 -4.138608821385662E+15
 NOR   7.646845702001939E+17  4.820432998287671E+15  3.188247908186481E+13
